[
    {
        "Altitude(m)": 612513.9605116602,
        "Argument of Periapsis(deg)": 0.0,
        "Eccentricity": 0.0,
        "Inclination(deg)": 60.0,
        "Latitude(deg)": -28.136056773664006,
        "Longitude(deg)": -77.08687658915434,
        "Mean Anomaly(deg)": -147.2727,
        "RAAN(deg)": 184.99999999999997,
        "Satellite Name": "Test1 827",
        "Satellite Number": 827,
        "Semi-Major Axis(m)": 6980739.136638005,
        "Time(s)": 0
    },
    {
        "Altitude(m)": 612708.3287949804,
        "Argument of Periapsis(deg)": 0.00010418945913296404,
        "Eccentricity": 0.0,
        "Inclination(deg)": 60.0,
        "Latitude(deg)": -28.64779582202922,
        "Longitude(deg)": -76.7296457133545,
        "Mean Anomaly(deg)": -146.65259385453817,
        "RAAN(deg)": 184.99957995086024,
        "Satellite Name": "Test1 827",
        "Satellite Number": 827,
        "Semi-Major Axis(m)": 6980739.136638005,
        "Time(s)": 10
    }
]